ONEWEB-0331             
1 49198U 21083N   24262.54461408 -.00000035  00000+0 -12133-3 0  9995
2 49198  87.9060 102.1823 0001807  75.3850 284.7483 13.18686241146102
ONEWEB-0333             
1 49199U 21083P   24262.52432658  .00000142  00000+0  35259-3 0  9990
2 49199  87.8857  86.9417 0001726  92.7503 267.3824 13.13466892147337
ONEWEB-0334             
1 49200U 21083Q   24262.45012237 -.00000052  00000+0 -15977-3 0  9999
2 49200  87.9233  41.1235 0001831 130.9897 229.1395 13.20769444152745
ONEWEB-0335             
1 49201U 21083R   24262.51958139  .00000255  00000+0  66388-3 0  9992
2 49201  87.8856  86.9313 0001880  86.5055 273.6289 13.13468477147346
ONEWEB-0336             
1 49202U 21083S   24262.56561358  .00000165  00000+0  41808-3 0  9991
2 49202  87.8856  86.9174 0001536  89.1790 270.9515 13.13470202147346
ONEWEB-0337             
1 49203U 21083T   24262.57498507  .00000339  00000+0  89404-3 0  9995
2 49203  87.8853  86.9140 0001834  86.3328 273.8010 13.13469009147349
ONEWEB-0338             
1 49204U 21083U   24262.45723872 -.00000065  00000+0 -19207-3 0  9991
2 49204  87.9239  41.1111 0001953 108.0736 252.0610 13.20772118152760
ONEWEB-0339             
1 49205U 21083V   24262.51006355  .00000319  00000+0  83871-3 0  9997
2 49205  87.8852  86.9208 0001878  89.4712 270.6633 13.13469386147315
